[{"OBJECT_NAME":"ARIANE 3 DEB","OBJECT_ID":"1984-081G","EPOCH":"2026-04-26T16:11:16.177920","MEAN_MOTION":2.08081799,"ECCENTRICITY":0.70886431,"INCLINATION":6.1232,"RA_OF_ASC_NODE":14.5712,"ARG_OF_PERICENTER":336.1418,"MEAN_ANOMALY":3.0979,"EPHEMERIS_TYPE":0,"CLASSIFICATION_TYPE":"U","NORAD_CAT_ID":48347,"ELEMENT_SET_NO":999,"REV_AT_EPOCH":9457,"BSTAR":0,"MEAN_MOTION_DOT":3.4e-7,"MEAN_MOTION_DDOT":0},{"OBJECT_NAME":"SBIRS GEO-5 (USA 315)","OBJECT_ID":"2021-042A","EPOCH":"2026-04-27T01:13:38.591904","MEAN_MOTION":1.00271667,"ECCENTRICITY":0.00014253,"INCLINATION":5.169,"RA_OF_ASC_NODE":328.7497,"ARG_OF_PERICENTER":64.6376,"MEAN_ANOMALY":293.8565,"EPHEMERIS_TYPE":0,"CLASSIFICATION_TYPE":"U","NORAD_CAT_ID":48618,"ELEMENT_SET_NO":999,"REV_AT_EPOCH":1825,"BSTAR":0,"MEAN_MOTION_DOT":-2.88e-6,"MEAN_MOTION_DDOT":0},{"OBJECT_NAME":"FENGYUN 4B","OBJECT_ID":"2021-047A","EPOCH":"2026-04-27T00:19:55.310304","MEAN_MOTION":1.00266459,"ECCENTRICITY":0.00054849,"INCLINATION":0.018,"RA_OF_ASC_NODE":10.8934,"ARG_OF_PERICENTER":2.506,"MEAN_ANOMALY":311.2601,"EPHEMERIS_TYPE":0,"CLASSIFICATION_TYPE":"U","NORAD_CAT_ID":48808,"ELEMENT_SET_NO":999,"REV_AT_EPOCH":1806,"BSTAR":0,"MEAN_MOTION_DOT":0,"MEAN_MOTION_DDOT":0},{"OBJECT_NAME":"SXM-8","OBJECT_ID":"2021-049A","EPOCH":"2026-04-27T05:42:00.292896","MEAN_MOTION":1.00272936,"ECCENTRICITY":0.00046209,"INCLINATION":0.0439,"RA_OF_ASC_NODE":50.7942,"ARG_OF_PERICENTER":347.1099,"MEAN_ANOMALY":177.6761,"EPHEMERIS_TYPE":0,"CLASSIFICATION_TYPE":"U","NORAD_CAT_ID":48838,"ELEMENT_SET_NO":999,"REV_AT_EPOCH":1807,"BSTAR":0,"MEAN_MOTION_DOT":-2.15e-6,"MEAN_MOTION_DDOT":0},{"OBJECT_NAME":"TIANLIAN 1-05","OBJECT_ID":"2021-063A","EPOCH":"2026-04-26T06:48:08.142912","MEAN_MOTION":1.0027159,"ECCENTRICITY":0.00026721,"INCLINATION":1.4617,"RA_OF_ASC_NODE":81.0728,"ARG_OF_PERICENTER":261.5372,"MEAN_ANOMALY":350.5176,"EPHEMERIS_TYPE":0,"CLASSIFICATION_TYPE":"U","NORAD_CAT_ID":49011,"ELEMENT_SET_NO":999,"REV_AT_EPOCH":1755,"BSTAR":0,"MEAN_MOTION_DOT":9.7e-7,"MEAN_MOTION_DDOT":0},{"OBJECT_NAME":"STAR ONE D2","OBJECT_ID":"2021-069A","EPOCH":"2026-04-26T23:44:38.893056","MEAN_MOTION":1.00271769,"ECCENTRICITY":0.00011794,"INCLINATION":0.0218,"RA_OF_ASC_NODE":140.2846,"ARG_OF_PERICENTER":276.311,"MEAN_ANOMALY":84.5713,"EPHEMERIS_TYPE":0,"CLASSIFICATION_TYPE":"U","NORAD_CAT_ID":49055,"ELEMENT_SET_NO":999,"REV_AT_EPOCH":1743,"BSTAR":0,"MEAN_MOTION_DOT":-2.76e-6,"MEAN_MOTION_DDOT":0},{"OBJECT_NAME":"EUTELSAT QUANTUM","OBJECT_ID":"2021-069B","EPOCH":"2026-04-27T04:48:38.757312","MEAN_MOTION":1.00272725,"ECCENTRICITY":0.00025275,"INCLINATION":0.007,"RA_OF_ASC_NODE":50.2325,"ARG_OF_PERICENTER":348.5903,"MEAN_ANOMALY":296.2278,"EPHEMERIS_TYPE":0,"CLASSIFICATION_TYPE":"U","NORAD_CAT_ID":49056,"ELEMENT_SET_NO":999,"REV_AT_EPOCH":1741,"BSTAR":0,"MEAN_MOTION_DOT":0,"MEAN_MOTION_DDOT":0},{"OBJECT_NAME":"ZHONGXING-2E","OBJECT_ID":"2021-071A","EPOCH":"2026-04-27T04:46:21.775296","MEAN_MOTION":1.00269549,"ECCENTRICITY":0.00018604,"INCLINATION":0.0323,"RA_OF_ASC_NODE":348.6246,"ARG_OF_PERICENTER":136.3088,"MEAN_ANOMALY":259.8865,"EPHEMERIS_TYPE":0,"CLASSIFICATION_TYPE":"U","NORAD_CAT_ID":49062,"ELEMENT_SET_NO":999,"REV_AT_EPOCH":1752,"BSTAR":0,"MEAN_MOTION_DOT":-3.01e-6,"MEAN_MOTION_DDOT":0},{"OBJECT_NAME":"TJS-7","OBJECT_ID":"2021-077A","EPOCH":"2026-04-27T06:37:28.990272","MEAN_MOTION":1.00269784,"ECCENTRICITY":0.00020569,"INCLINATION":0.3785,"RA_OF_ASC_NODE":86.5078,"ARG_OF_PERICENTER":301.2772,"MEAN_ANOMALY":187.3203,"EPHEMERIS_TYPE":0,"CLASSIFICATION_TYPE":"U","NORAD_CAT_ID":49115,"ELEMENT_SET_NO":999,"REV_AT_EPOCH":904,"BSTAR":0,"MEAN_MOTION_DOT":-1.33e-6,"MEAN_MOTION_DDOT":0},{"OBJECT_NAME":"CHINASAT 9B","OBJECT_ID":"2021-080A","EPOCH":"2026-04-27T04:46:21.775296","MEAN_MOTION":1.00273148,"ECCENTRICITY":0.00015062,"INCLINATION":0.0131,"RA_OF_ASC_NODE":255.7909,"ARG_OF_PERICENTER":139.0558,"MEAN_ANOMALY":353.3425,"EPHEMERIS_TYPE":0,"CLASSIFICATION_TYPE":"U","NORAD_CAT_ID":49125,"ELEMENT_SET_NO":999,"REV_AT_EPOCH":1713,"BSTAR":0,"MEAN_MOTION_DOT":-3.23e-6,"MEAN_MOTION_DDOT":0},{"OBJECT_NAME":"SHIYAN-10 01 (SY-10 01)","OBJECT_ID":"2021-087A","EPOCH":"2026-04-26T13:31:26.226336","MEAN_MOTION":2.00606581,"ECCENTRICITY":0.6947515,"INCLINATION":63.1045,"RA_OF_ASC_NODE":225.985,"ARG_OF_PERICENTER":269.8945,"MEAN_ANOMALY":17.417,"EPHEMERIS_TYPE":0,"CLASSIFICATION_TYPE":"U","NORAD_CAT_ID":49258,"ELEMENT_SET_NO":999,"REV_AT_EPOCH":3349,"BSTAR":0,"MEAN_MOTION_DOT":5.9e-6,"MEAN_MOTION_DDOT":0},{"OBJECT_NAME":"SHIJIAN-21 (SJ-21)","OBJECT_ID":"2021-094A","EPOCH":"2026-04-27T07:57:43.206048","MEAN_MOTION":1.00278326,"ECCENTRICITY":0.00481336,"INCLINATION":4.9952,"RA_OF_ASC_NODE":61.4669,"ARG_OF_PERICENTER":168.9538,"MEAN_ANOMALY":232.1175,"EPHEMERIS_TYPE":0,"CLASSIFICATION_TYPE":"U","NORAD_CAT_ID":49330,"ELEMENT_SET_NO":999,"REV_AT_EPOCH":485,"BSTAR":0,"MEAN_MOTION_DOT":-3.54e-6,"MEAN_MOTION_DDOT":0},{"OBJECT_NAME":"SES-17","OBJECT_ID":"2021-095A","EPOCH":"2026-04-27T04:35:38.533344","MEAN_MOTION":1.00270326,"ECCENTRICITY":9.853e-5,"INCLINATION":0.0431,"RA_OF_ASC_NODE":47.2792,"ARG_OF_PERICENTER":342.2973,"MEAN_ANOMALY":187.4188,"EPHEMERIS_TYPE":0,"CLASSIFICATION_TYPE":"U","NORAD_CAT_ID":49332,"ELEMENT_SET_NO":999,"REV_AT_EPOCH":1734,"BSTAR":0,"MEAN_MOTION_DOT":-2.82e-6,"MEAN_MOTION_DDOT":0},{"OBJECT_NAME":"SYRACUSE 4A","OBJECT_ID":"2021-095B","EPOCH":"2026-04-27T04:48:38.757312","MEAN_MOTION":1.00272295,"ECCENTRICITY":0.00011943,"INCLINATION":0.0185,"RA_OF_ASC_NODE":278.4236,"ARG_OF_PERICENTER":125.9982,"MEAN_ANOMALY":288.4322,"EPHEMERIS_TYPE":0,"CLASSIFICATION_TYPE":"U","NORAD_CAT_ID":49333,"ELEMENT_SET_NO":999,"REV_AT_EPOCH":1743,"BSTAR":0,"MEAN_MOTION_DOT":1.25e-6,"MEAN_MOTION_DDOT":0},{"OBJECT_NAME":"QZS-1R (MICHIBIKI-1R)","OBJECT_ID":"2021-096A","EPOCH":"2026-04-27T05:18:38.510784","MEAN_MOTION":1.00272987,"ECCENTRICITY":0.07514359,"INCLINATION":37.3604,"RA_OF_ASC_NODE":80.3327,"ARG_OF_PERICENTER":270.8549,"MEAN_ANOMALY":79.3818,"EPHEMERIS_TYPE":0,"CLASSIFICATION_TYPE":"U","NORAD_CAT_ID":49336,"ELEMENT_SET_NO":999,"REV_AT_EPOCH":1649,"BSTAR":0,"MEAN_MOTION_DOT":-2.37e-6,"MEAN_MOTION_DDOT":0},{"OBJECT_NAME":"ATLAS 5 CENTAUR DEB","OBJECT_ID":"2018-079ER","EPOCH":"2026-04-26T10:37:00.543360","MEAN_MOTION":1.76317905,"ECCENTRICITY":0.4765449,"INCLINATION":13.6907,"RA_OF_ASC_NODE":42.3453,"ARG_OF_PERICENTER":292.2591,"MEAN_ANOMALY":24.8621,"EPHEMERIS_TYPE":0,"CLASSIFICATION_TYPE":"U","NORAD_CAT_ID":49340,"ELEMENT_SET_NO":999,"REV_AT_EPOCH":2999,"BSTAR":0,"MEAN_MOTION_DOT":-9.6e-7,"MEAN_MOTION_DDOT":0},{"OBJECT_NAME":"ATLAS 5 CENTAUR DEB","OBJECT_ID":"2018-079ES","EPOCH":"2026-04-19T22:44:36.108960","MEAN_MOTION":1.75091705,"ECCENTRICITY":0.46494028,"INCLINATION":13.6338,"RA_OF_ASC_NODE":51.9546,"ARG_OF_PERICENTER":271.1157,"MEAN_ANOMALY":38.0522,"EPHEMERIS_TYPE":0,"CLASSIFICATION_TYPE":"U","NORAD_CAT_ID":49341,"ELEMENT_SET_NO":999,"REV_AT_EPOCH":2968,"BSTAR":0,"MEAN_MOTION_DOT":-7.8e-7,"MEAN_MOTION_DDOT":0}]
