ARIANE 3 DEB            
1 48347U 84081G   26116.67449280  .00000034  00000+0  00000+0 0  9998
2 48347   6.1232  14.5712 7088643 336.1418   3.0979  2.08081799 94571
SBIRS GEO-5 (USA 315)   
1 48618U 21042A   26117.05114111 -.00000288  00000+0  00000+0 0  9994
2 48618   5.1690 328.7497 0001425  64.6376 293.8565  1.00271667 18258
FENGYUN 4B              
1 48808U 21047A   26117.01383461  .00000000  00000+0  00000+0 0  9993
2 48808   0.0180  10.8934 0005484   2.5060 311.2601  1.00266459 18060
SXM-8                   
1 48838U 21049A   26117.23750339 -.00000215  00000+0  00000+0 0  9993
2 48838   0.0439  50.7942 0004620 347.1099 177.6761  1.00272936 18072
TIANLIAN 1-05           
1 49011U 21063A   26116.28342758  .00000097  00000+0  00000+0 0  9996
2 49011   1.4617  81.0728 0002672 261.5372 350.5176  1.00271590 17555
STAR ONE D2             
1 49055U 21069A   26116.98933904 -.00000276  00000+0  00000+0 0  9996
2 49055   0.0218 140.2846 0001179 276.3110  84.5713  1.00271769 17435
EUTELSAT QUANTUM        
1 49056U 21069B   26117.20044858  .00000000  00000+0  00000+0 0  9998
2 49056   0.0070  50.2325 0002527 348.5903 296.2278  1.00272725 17413
ZHONGXING-2E            
1 49062U 21071A   26117.19886314 -.00000301  00000+0  00000+0 0  9992
2 49062   0.0323 348.6246 0001860 136.3088 259.8865  1.00269549 17522
TJS-7                   
1 49115U 21077A   26117.27602998 -.00000133  00000+0  00000+0 0  9993
2 49115   0.3785  86.5078 0002056 301.2772 187.3203  1.00269784  9048
CHINASAT 9B             
1 49125U 21080A   26117.19886314 -.00000323  00000+0  00000+0 0  9996
2 49125   0.0131 255.7909 0001506 139.0558 353.3425  1.00273148 17131
SHIYAN-10 01 (SY-10 01) 
1 49258U 21087A   26116.56349799  .00000590  00000+0  00000+0 0  9996
2 49258  63.1045 225.9850 6947515 269.8945  17.4170  2.00606581 33497
SHIJIAN-21 (SJ-21)      
1 49330U 21094A   26117.33175007 -.00000354  00000+0  00000+0 0  9999
2 49330   4.9952  61.4669 0048133 168.9538 232.1175  1.00278326  4858
SES-17                  
1 49332U 21095A   26117.19141821 -.00000282  00000+0  00000+0 0  9993
2 49332   0.0431  47.2792 0000985 342.2973 187.4188  1.00270326 17347
SYRACUSE 4A             
1 49333U 21095B   26117.20044858  .00000125  00000+0  00000+0 0  9993
2 49333   0.0185 278.4236 0001194 125.9982 288.4322  1.00272295 17433
QZS-1R (MICHIBIKI-1R)   
1 49336U 21096A   26117.22127906 -.00000237  00000+0  00000+0 0  9990
2 49336  37.3604  80.3327 0751435 270.8549  79.3818  1.00272987 16495
ATLAS 5 CENTAUR DEB     
1 49340U 18079ER  26116.44236740 -.00000096  00000+0  00000+0 0  9995
2 49340  13.6907  42.3453 4765449 292.2591  24.8621  1.76317905 29999
ATLAS 5 CENTAUR DEB     
1 49341U 18079ES  26109.94764015 -.00000078  00000+0  00000+0 0  9994
2 49341  13.6338  51.9546 4649402 271.1157  38.0522  1.75091705 29680
